[{"OBJECT_NAME":"GOES 19","OBJECT_ID":"2024-119A","EPOCH":"2026-03-07T08:18:38.763936","MEAN_MOTION":1.00271645,"ECCENTRICITY":0.0001211,"INCLINATION":0.0453,"RA_OF_ASC_NODE":327.2067,"ARG_OF_PERICENTER":70.7637,"MEAN_ANOMALY":176.5402,"EPHEMERIS_TYPE":0,"CLASSIFICATION_TYPE":"U","NORAD_CAT_ID":60133,"ELEMENT_SET_NO":999,"REV_AT_EPOCH":594,"BSTAR":0,"MEAN_MOTION_DOT":-2.5e-6,"MEAN_MOTION_DDOT":0},{"OBJECT_NAME":"FENGYUN 3H","OBJECT_ID":"2025-219A","EPOCH":"2026-03-07T13:41:10.603104","MEAN_MOTION":14.19931906,"ECCENTRICITY":0.00013378,"INCLINATION":98.6684,"RA_OF_ASC_NODE":9.3626,"ARG_OF_PERICENTER":62.489,"MEAN_ANOMALY":297.6422,"EPHEMERIS_TYPE":0,"CLASSIFICATION_TYPE":"U","NORAD_CAT_ID":65815,"ELEMENT_SET_NO":999,"REV_AT_EPOCH":2296,"BSTAR":7.6804891e-5,"MEAN_MOTION_DOT":1.2e-6,"MEAN_MOTION_DDOT":0}]
