GOES 19                 
1 60133U 24119A   26066.34628199 -.00000250  00000+0  00000+0 0  9998
2 60133   0.0453 327.2067 0001211  70.7637 176.5402  1.00271645  5948
FENGYUN 3H              
1 65815U 25219A   26066.57026161  .00000120  00000+0  76805-4 0  9994
2 65815  98.6684   9.3626 0001337  62.4890 297.6422 14.19931906 22961
